[Satellite]
VERSION=1.1
NAME=ORBCOMM FM09 [+]
NICKNAME=ORBCOMM FM09 [+]
TLE1=1 25116U 97084E   15055.01115563  .00001036  00000-0  38924-3 0  9990
TLE2=2 25116  45.0161 270.8752 0006207 357.4254   2.6561 14.37591849898781
